[
  {
    "OBJECT_NAME": "STARLINK-34600",
    "OBJECT_ID": "25142D",
    "EPOCH": "2025-11-11T06:19:03.626688",
    "MEAN_MOTION": 14.95931364,
    "ECCENTRICITY": 0.0002796,
    "INCLINATION": 70.0014,
    "RA_OF_ASC_NODE": 252.154,
    "ARG_OF_PERICENTER": 271.4189,
    "MEAN_ANOMALY": 88.6648,
    "EPHEMERIS_TYPE": 0,
    "CLASSIFICATION_TYPE": "U",
    "NORAD_CAT_ID": 64699,
    "ELEMENT_SET_NO": 999,
    "REV_AT_EPOCH": 2176,
    "BSTAR": 0.0011565,
    "MEAN_MOTION_DOT": 0.00012906,
    "MEAN_MOTION_DDOT": 0.0,
    "TLE_LINE1": "1 64699U 25142D   25315.26323642  .00012906  00000+0  11565-2 0  9999",
    "TLE_LINE2": "2 64699  70.0014 252.1540 0002796 271.4189  88.6648 14.95931364 21764",
    "COMMENT": "Grouped by shell and plane from TLE"
  },
  {
    "OBJECT_NAME": "STARLINK-34560",
    "OBJECT_ID": "25142E",
    "EPOCH": "2025-11-11T06:02:16.275264",
    "MEAN_MOTION": 14.959061,
    "ECCENTRICITY": 0.000247,
    "INCLINATION": 70.0015,
    "RA_OF_ASC_NODE": 252.1152,
    "ARG_OF_PERICENTER": 269.3537,
    "MEAN_ANOMALY": 90.7338,
    "EPHEMERIS_TYPE": 0,
    "CLASSIFICATION_TYPE": "U",
    "NORAD_CAT_ID": 64700,
    "ELEMENT_SET_NO": 999,
    "REV_AT_EPOCH": 2172,
    "BSTAR": 0.0013628000000000002,
    "MEAN_MOTION_DOT": 0.0001522,
    "MEAN_MOTION_DDOT": 0.0,
    "TLE_LINE1": "1 64700U 25142E   25315.25157726  .00015220  00000+0  13628-2 0  9993",
    "TLE_LINE2": "2 64700  70.0015 252.1152 0002470 269.3537  90.7338 14.95906100 21725",
    "COMMENT": "Grouped by shell and plane from TLE"
  },
  {
    "OBJECT_NAME": "STARLINK-34576",
    "OBJECT_ID": "25142F",
    "EPOCH": "2025-11-11T05:48:19.886976",
    "MEAN_MOTION": 14.95926305,
    "ECCENTRICITY": 0.0003017,
    "INCLINATION": 70.002,
    "RA_OF_ASC_NODE": 252.0766,
    "ARG_OF_PERICENTER": 268.5837,
    "MEAN_ANOMALY": 91.4975,
    "EPHEMERIS_TYPE": 0,
    "CLASSIFICATION_TYPE": "U",
    "NORAD_CAT_ID": 64701,
    "ELEMENT_SET_NO": 999,
    "REV_AT_EPOCH": 2175,
    "BSTAR": 0.00074966,
    "MEAN_MOTION_DOT": 8.328e-05,
    "MEAN_MOTION_DDOT": 0.0,
    "TLE_LINE1": "1 64701U 25142F   25315.24189684  .00008328  00000+0  74966-3 0  9995",
    "TLE_LINE2": "2 64701  70.0020 252.0766 0003017 268.5837  91.4975 14.95926305 21751",
    "COMMENT": "Grouped by shell and plane from TLE"
  },
  {
    "OBJECT_NAME": "STARLINK-34322",
    "OBJECT_ID": "25142G",
    "EPOCH": "2025-11-11T05:45:15.301152",
    "MEAN_MOTION": 14.95924433,
    "ECCENTRICITY": 0.0002784,
    "INCLINATION": 70.0015,
    "RA_OF_ASC_NODE": 252.4647,
    "ARG_OF_PERICENTER": 269.6188,
    "MEAN_ANOMALY": 90.465,
    "EPHEMERIS_TYPE": 0,
    "CLASSIFICATION_TYPE": "U",
    "NORAD_CAT_ID": 64702,
    "ELEMENT_SET_NO": 999,
    "REV_AT_EPOCH": 2191,
    "BSTAR": 0.00091252,
    "MEAN_MOTION_DOT": 0.00010159,
    "MEAN_MOTION_DDOT": 0.0,
    "TLE_LINE1": "1 64702U 25142G   25315.23976043  .00010159  00000+0  91252-3 0  9990",
    "TLE_LINE2": "2 64702  70.0015 252.4647 0002784 269.6188  90.4650 14.95924433 21916",
    "COMMENT": "Grouped by shell and plane from TLE"
  },
  {
    "OBJECT_NAME": "STARLINK-34470",
    "OBJECT_ID": "25142H",
    "EPOCH": "2025-11-11T05:56:43.879776",
    "MEAN_MOTION": 14.95934168,
    "ECCENTRICITY": 0.0002786,
    "INCLINATION": 70.0024,
    "RA_OF_ASC_NODE": 252.099,
    "ARG_OF_PERICENTER": 274.3925,
    "MEAN_ANOMALY": 85.6915,
    "EPHEMERIS_TYPE": 0,
    "CLASSIFICATION_TYPE": "U",
    "NORAD_CAT_ID": 64703,
    "ELEMENT_SET_NO": 999,
    "REV_AT_EPOCH": 2174,
    "BSTAR": 0.0011801000000000001,
    "MEAN_MOTION_DOT": 0.00013174,
    "MEAN_MOTION_DDOT": 0.0,
    "TLE_LINE1": "1 64703U 25142H   25315.24773009  .00013174  00000+0  11801-2 0  9990",
    "TLE_LINE2": "2 64703  70.0024 252.0990 0002786 274.3925  85.6915 14.95934168 21745",
    "COMMENT": "Grouped by shell and plane from TLE"
  },
  {
    "OBJECT_NAME": "STARLINK-34405",
    "OBJECT_ID": "25142J",
    "EPOCH": "2025-11-11T06:22:16.654656",
    "MEAN_MOTION": 14.98351358,
    "ECCENTRICITY": 0.0002774,
    "INCLINATION": 70.0017,
    "RA_OF_ASC_NODE": 252.975,
    "ARG_OF_PERICENTER": 264.4311,
    "MEAN_ANOMALY": 95.6532,
    "EPHEMERIS_TYPE": 0,
    "CLASSIFICATION_TYPE": "U",
    "NORAD_CAT_ID": 64704,
    "ELEMENT_SET_NO": 999,
    "REV_AT_EPOCH": 2175,
    "BSTAR": 0.00085395,
    "MEAN_MOTION_DOT": 0.00010116,
    "MEAN_MOTION_DDOT": 0.0,
    "TLE_LINE1": "1 64704U 25142J   25315.26547054  .00010116  00000+0  85395-3 0  9995",
    "TLE_LINE2": "2 64704  70.0017 252.9750 0002774 264.4311  95.6532 14.98351358 21751",
    "COMMENT": "Grouped by shell and plane from TLE"
  },
  {
    "OBJECT_NAME": "STARLINK-34406",
    "OBJECT_ID": "25142K",
    "EPOCH": "2025-11-11T05:21:58.710816",
    "MEAN_MOTION": 14.9834764,
    "ECCENTRICITY": 0.0002777,
    "INCLINATION": 70.0016,
    "RA_OF_ASC_NODE": 253.2292,
    "ARG_OF_PERICENTER": 272.8894,
    "MEAN_ANOMALY": 87.1947,
    "EPHEMERIS_TYPE": 0,
    "CLASSIFICATION_TYPE": "U",
    "NORAD_CAT_ID": 64705,
    "ELEMENT_SET_NO": 999,
    "REV_AT_EPOCH": 2185,
    "BSTAR": 0.0010312000000000001,
    "MEAN_MOTION_DOT": 0.00012238,
    "MEAN_MOTION_DDOT": 0.0,
    "TLE_LINE1": "1 64705U 25142K   25315.22359619  .00012238  00000+0  10312-2 0  9993",
    "TLE_LINE2": "2 64705  70.0016 253.2292 0002777 272.8894  87.1947 14.98347640 21854",
    "COMMENT": "Grouped by shell and plane from TLE"
  },
  {
    "OBJECT_NAME": "STARLINK-34559",
    "OBJECT_ID": "25142L",
    "EPOCH": "2025-11-11T06:22:02.497152",
    "MEAN_MOTION": 14.98345475,
    "ECCENTRICITY": 0.0003038,
    "INCLINATION": 70.0018,
    "RA_OF_ASC_NODE": 252.9714,
    "ARG_OF_PERICENTER": 270.8106,
    "MEAN_ANOMALY": 89.2705,
    "EPHEMERIS_TYPE": 0,
    "CLASSIFICATION_TYPE": "U",
    "NORAD_CAT_ID": 64706,
    "ELEMENT_SET_NO": 999,
    "REV_AT_EPOCH": 2175,
    "BSTAR": 0.0006727800000000001,
    "MEAN_MOTION_DOT": 7.947e-05,
    "MEAN_MOTION_DDOT": 0.0,
    "TLE_LINE1": "1 64706U 25142L   25315.26530668  .00007947  00000+0  67278-3 0  9998",
    "TLE_LINE2": "2 64706  70.0018 252.9714 0003038 270.8106  89.2705 14.98345475 21755",
    "COMMENT": "Grouped by shell and plane from TLE"
  },
  {
    "OBJECT_NAME": "STARLINK-34316",
    "OBJECT_ID": "25142M",
    "EPOCH": "2025-11-11T06:28:03.072000",
    "MEAN_MOTION": 14.9834705,
    "ECCENTRICITY": 0.0002812,
    "INCLINATION": 70.0022,
    "RA_OF_ASC_NODE": 252.9853,
    "ARG_OF_PERICENTER": 273.6218,
    "MEAN_ANOMALY": 86.462,
    "EPHEMERIS_TYPE": 0,
    "CLASSIFICATION_TYPE": "U",
    "NORAD_CAT_ID": 64707,
    "ELEMENT_SET_NO": 999,
    "REV_AT_EPOCH": 2191,
    "BSTAR": 0.00062606,
    "MEAN_MOTION_DOT": 7.388e-05,
    "MEAN_MOTION_DDOT": 0.0,
    "TLE_LINE1": "1 64707U 25142M   25315.26948000  .00007388  00000+0  62606-3 0  9991",
    "TLE_LINE2": "2 64707  70.0022 252.9853 0002812 273.6218  86.4620 14.98347050 21913",
    "COMMENT": "Grouped by shell and plane from TLE"
  },
  {
    "OBJECT_NAME": "STARLINK-34563",
    "OBJECT_ID": "25142N",
    "EPOCH": "2025-11-11T05:52:02.786880",
    "MEAN_MOTION": 14.98324731,
    "ECCENTRICITY": 0.0002734,
    "INCLINATION": 70.0014,
    "RA_OF_ASC_NODE": 253.2972,
    "ARG_OF_PERICENTER": 265.5242,
    "MEAN_ANOMALY": 94.5605,
    "EPHEMERIS_TYPE": 0,
    "CLASSIFICATION_TYPE": "U",
    "NORAD_CAT_ID": 64708,
    "ELEMENT_SET_NO": 999,
    "REV_AT_EPOCH": 2171,
    "BSTAR": 0.0013383999999999998,
    "MEAN_MOTION_DOT": 0.00015911,
    "MEAN_MOTION_DDOT": 0.0,
    "TLE_LINE1": "1 64708U 25142N   25315.24447670  .00015911  00000+0  13384-2 0  9996",
    "TLE_LINE2": "2 64708  70.0014 253.2972 0002734 265.5242  94.5605 14.98324731 21713",
    "COMMENT": "Grouped by shell and plane from TLE"
  },
  {
    "OBJECT_NAME": "STARLINK-34499",
    "OBJECT_ID": "25142P",
    "EPOCH": "2025-11-11T06:43:12.406944",
    "MEAN_MOTION": 14.95908531,
    "ECCENTRICITY": 0.0001947,
    "INCLINATION": 70.0026,
    "RA_OF_ASC_NODE": 252.6061,
    "ARG_OF_PERICENTER": 267.4704,
    "MEAN_ANOMALY": 92.6231,
    "EPHEMERIS_TYPE": 0,
    "CLASSIFICATION_TYPE": "U",
    "NORAD_CAT_ID": 64709,
    "ELEMENT_SET_NO": 999,
    "REV_AT_EPOCH": 2173,
    "BSTAR": 1.2718e-06,
    "MEAN_MOTION_DOT": -7.6e-07,
    "MEAN_MOTION_DDOT": 0.0,
    "TLE_LINE1": "1 64709U 25142P   25315.28000471 -.00000076  00000+0  12718-5 0  9995",
    "TLE_LINE2": "2 64709  70.0026 252.6061 0001947 267.4704  92.6231 14.95908531 21737",
    "COMMENT": "Grouped by shell and plane from TLE"
  },
  {
    "OBJECT_NAME": "STARLINK-34447",
    "OBJECT_ID": "25142Q",
    "EPOCH": "2025-11-11T05:26:54.893472",
    "MEAN_MOTION": 14.95923689,
    "ECCENTRICITY": 0.0002608,
    "INCLINATION": 70.0023,
    "RA_OF_ASC_NODE": 252.0218,
    "ARG_OF_PERICENTER": 269.3037,
    "MEAN_ANOMALY": 90.7822,
    "EPHEMERIS_TYPE": 0,
    "CLASSIFICATION_TYPE": "U",
    "NORAD_CAT_ID": 64710,
    "ELEMENT_SET_NO": 999,
    "REV_AT_EPOCH": 2193,
    "BSTAR": 0.0007380700000000001,
    "MEAN_MOTION_DOT": 8.197e-05,
    "MEAN_MOTION_DDOT": 0.0,
    "TLE_LINE1": "1 64710U 25142Q   25315.22702423  .00008197  00000+0  73807-3 0  9992",
    "TLE_LINE2": "2 64710  70.0023 252.0218 0002608 269.3037  90.7822 14.95923689 21937",
    "COMMENT": "Grouped by shell and plane from TLE"
  },
  {
    "OBJECT_NAME": "STARLINK-34312",
    "OBJECT_ID": "25142R",
    "EPOCH": "2025-11-11T06:34:18.162048",
    "MEAN_MOTION": 14.98347024,
    "ECCENTRICITY": 0.0002615,
    "INCLINATION": 70.0028,
    "RA_OF_ASC_NODE": 252.9928,
    "ARG_OF_PERICENTER": 282.2717,
    "MEAN_ANOMALY": 77.815,
    "EPHEMERIS_TYPE": 0,
    "CLASSIFICATION_TYPE": "U",
    "NORAD_CAT_ID": 64711,
    "ELEMENT_SET_NO": 999,
    "REV_AT_EPOCH": 2191,
    "BSTAR": 0.00069361,
    "MEAN_MOTION_DOT": 8.196e-05,
    "MEAN_MOTION_DDOT": 0.0,
    "TLE_LINE1": "1 64711U 25142R   25315.27382132  .00008196  00000+0  69361-3 0  9998",
    "TLE_LINE2": "2 64711  70.0028 252.9928 0002615 282.2717  77.8150 14.98347024 21911",
    "COMMENT": "Grouped by shell and plane from TLE"
  }
]